INTELSAT 902 (IS-902)   
1 26900U 01039A   26138.37209252 -.00000281  00000+0  00000+0 0  9990
2 26900   6.0438  72.1403 0004687 341.3509 266.4301  1.00271284 90395
INTELSAT 904 (IS-904)   
1 27380U 02007A   26138.28535421 -.00000224  00000+0  00000+0 0  9996
2 27380   6.8472  69.5355 0007068 347.1115 250.5836  1.00271180 51460
DIRECTV 5 (TEMPO 1)     
1 27426U 02023A   26138.52642627 -.00000056  00000+0  00000+0 0  9992
2 27426   4.8037  75.6655 0003237 333.3996 266.5619  1.00272503 87820
INTELSAT 905 (IS-905)   
1 27438U 02027A   26138.55026983  .00000095  00000+0  00000+0 0  9995
2 27438   6.6811  70.1491 0003641 356.5271 230.4424  1.00270197 51061
GALAXY 3C (G-3C)        
1 27445U 02030A   26138.53083310 -.00000151  00000+0  00000+0 0  9996
2 27445   3.6549  78.3652 0001524  32.7924 221.3094  1.00271071 46191
INTELSAT 906 (IS-906)   
1 27513U 02041A   26138.46689750  .00000014  00000+0  00000+0 0  9993
2 27513   5.7289  73.2800 0004628 349.4754  45.6239  1.00272826 86738
GALAXY 13 (HORIZONS-1)  
1 27954U 03044A   26138.54678844  .00000135  00000+0  00000+0 0  9991
2 27954   1.3436  84.2121 0002247 327.4490 231.4233  1.00269952 46279
INTELSAT 10-02          
1 28358U 04022A   26138.38270188 -.00000008  00000+0  00000+0 0  9998
2 28358   0.0354  48.9894 0000375 120.7402 203.1385  1.00271595 80250
DIRECTV 8               
1 28659U 05019A   26138.52426644  .00000004  00000+0  00000+0 0  9990
2 28659   0.0139 288.1876 0002823 131.3797 246.3294  1.00272078 76775
GALAXY 28 (G-28)        
1 28702U 05022A   26138.44878409 -.00000197  00000+0  00000+0 0  9998
2 28702   3.2237  79.2749 0002714 331.8958 319.4375  1.00273147 51673
GALAXY 16 (G-16)        
1 29236U 06023A   26138.48377867 -.00000124  00000+0  00000+0 0  9999
2 29236   0.0618 111.8813 0002297 294.8380 264.6045  1.00269174 72675
DIRECTV 9S              
1 29494U 06043A   26138.52895306 -.00000111  00000+0  00000+0 0  9991
2 29494   2.3455  81.2367 0004450 349.2876 254.9282  1.00270903 51086
GALAXY 17 (G-17)        
1 31307U 07016B   26138.50863837 -.00000204  00000+0  00000+0 0  9993
2 31307   2.8986  80.2555 0004409 350.9293 263.1251  1.00270765 69500
INTELSAT 11 (IS-11)     
1 32253U 07044B   26138.55430640  .00000035  00000+0  00000+0 0  9993
2 32253   3.4896  79.0105 0000516 131.7887 121.0708  0.99047127 68154
HORIZONS-2              
1 32388U 07063B   26138.49558639 -.00000251  00000+0  00000+0 0  9996
2 32388   2.5268  80.9702 0003500 340.6246 279.2053  1.00269425 67514
DIRECTV 11              
1 32729U 08013A   26138.36488744 -.00000122  00000+0  00000+0 0  9993
2 32729   0.0038  71.2650 0000227 284.3050 272.6613  1.00269772 45291
GALAXY 18 (G-18)        
1 32951U 08024A   26138.52334396  .00000028  00000+0  00000+0 0  9997
2 32951   0.0161 338.7320 0002713  85.9777 236.9045  1.00269836 45555
INTELSAT 25 (IS-25)     
1 33153U 08034A   26138.50352233  .00000042  00000+0  00000+0 0  9997
2 33153   2.6327  80.6478 0001761 344.5745 245.9458  0.99138389 65397
GALAXY 19 (G-19)        
1 33376U 08045A   26138.52982396 -.00000136  00000+0  00000+0 0  9992
2 33376   0.0205  62.5668 0002710   1.9466 265.4382  1.00269469 64603
FM-5                    
1 35493U 09034A   26138.46402975 -.00000197  00000+0  00000+0 0  9993
2 35493   0.0131 297.4782 0000768 331.5221  48.0538  1.00271031 46348
INTELSAT 14 (IS-14)     
1 36097U 09064A   26138.45044571 -.00000271  00000+0  00000+0 0  9993
2 36097   0.0402  78.9361 0002264 342.5950 291.7780  1.00270738 60300
INTELSAT 15 (IS-15)     
1 36106U 09067A   26138.47105751 -.00000182  00000+0  00000+0 0  9998
2 36106   0.0147 303.7586 0001987 105.8741  81.2595  1.00270221 40934
DIRECTV 12              
1 36131U 09075A   26138.41370354 -.00000100  00000+0  00000+0 0  9992
2 36131   0.0149  88.4534 0000241 189.0473   4.8220  1.00268383 46255
INTELSAT 16 (IS-16)     
1 36397U 10006A   26138.51037169 -.00000242  00000+0  00000+0 0  9994
2 36397   0.0114 322.6671 0002293 129.9352 251.1361  1.00270353 59352
XM-5                    
1 37185U 10053A   26138.52573494 -.00000020  00000+0  00000+0 0  9993
2 37185   0.0639 273.1387 0003606 281.5811 115.5674  1.00270085 57189
INTELSAT 17 (IS-17)     
1 37238U 10065B   26138.53853850  .00000001  00000+0  00000+0 0  9991
2 37238   0.0206 259.2745 0002754 167.7483  69.0755  1.00273839 52957
INTELSAT 28 (IS-28)     
1 37392U 11016A   26138.43328177 -.00000222  00000+0  00000+0 0  9993
2 37392   1.7304  82.9568 0003686 337.0638 300.3841  1.00269965 52983
INTELSAT 18 (IS-18)     
1 37834U 11056A   26138.54002916  .00000055  00000+0  00000+0 0  9993
2 37834   0.0166 331.0549 0001585  77.9598 201.6325  1.00271184 53516
INTELSAT 22 (IS-22)     
1 38098U 12011A   26138.53975183 -.00000056  00000+0  00000+0 0  9994
2 38098   0.0026 358.7718 0002056  74.4546  69.4223  1.00270133  6896
INTELSAT 19 (IS-19)     
1 38356U 12030A   26138.53822580 -.00000054  00000+0  00000+0 0  9992
2 38356   0.0155 300.9488 0002725 118.1547 176.8912  1.00271890 50156
INTELSAT 20 (IS-20)     
1 38740U 12043A   26138.53905850 -.00000022  00000+0  00000+0 0  9990
2 38740   0.0087 158.6830 0001661  18.9047 321.2061  1.00270422 50450
INTELSAT 21 (IS-21)     
1 38749U 12045A   26138.30012472 -.00000281  00000+0  00000+0 0  9992
2 38749   0.0667  93.4436 0001700 325.1627 227.4469  1.00272712 50220
INTELSAT 23 (IS-23)     
1 38867U 12057A   26138.45600355 -.00000282  00000+0  00000+0 0  9996
2 38867   0.0068 316.1537 0000644 140.9251 250.2409  1.00274660 49652
FM-6                    
1 39360U 13058A   26138.55560146 -.00000013  00000+0  00000+0 0  9993
2 39360   0.0007  26.0100 0001551 102.4334 191.4562  1.00270316 45779
INTELSAT 30 (IS-30)     
1 40271U 14062A   26138.34419588 -.00000147  00000+0  00000+0 0  9990
2 40271   0.0248  30.2168 0000695 346.1695 248.5018  1.00271061  6499
DIRECTV 14              
1 40333U 14078B   26138.48377867 -.00000122  00000+0  00000+0 0  9997
2 40333   0.0114 351.0638 0000522 220.0320 100.0024  1.00270323 41746
DIRECTV 15              
1 40663U 15026A   26138.50508500 -.00000100  00000+0  00000+0 0  9996
2 40663   0.0370  87.4847 0000406 179.1813  48.4886  1.00271639 40167
SKY MEXICO-1            
1 40664U 15026B   26138.49558639 -.00000232  00000+0  00000+0 0  9999
2 40664   0.0177 323.3769 0001730 100.7940 271.6431  1.00271345 40159
INTELSAT 34 (IS-34)     
1 40874U 15039A   26138.37186847 -.00000282  00000+0  00000+0 0  9996
2 40874   0.0119 305.4961 0000435  25.7933 343.1636  1.00275892 39333
INTELSAT 31 (IS-31)     
1 41581U 16035A   26138.43535068 -.00000148  00000+0  00000+0 0  9990
2 41581   0.0142 256.2883 0001710  15.3959  26.1087  1.00270574 36383
INTELSAT 36 (IS-36)     
1 41747U 16053A   26138.53905850 -.00000022  00000+0  00000+0 0  9996
2 41747   0.0114 338.2731 0001724 340.5790 179.9476  1.00271687 35665
INTELSAT 32E (IS-32E)   
1 41945U 17007B   26138.51695839 -.00000266  00000+0  00000+0 0  9997
2 41945   0.0175 318.9040 0000666 324.5731  95.6648  1.00269484 33925
INTELSAT 35E (IS-35E)   
1 42818U 17041A   26138.39360610 -.00000235  00000+0  00000+0 0  9993
2 42818   0.0177 306.1092 0001831 110.3884 286.7931  1.00270057 32518
INTELSAT 37E (IS-37E)   
1 42950U 17059A   26138.42197514 -.00000137  00000+0  00000+0 0  9995
2 42950   0.0137 338.6223 0002256  79.6320 311.7677  1.00273680 31768
AZERSPACE 2 (IS-38)     
1 43632U 18074A   26138.53429182  .00000139  00000+0  00000+0 0  9993
2 43632   0.0160 305.1687 0001192 103.3344  65.1725  1.00270404 28158
HORIZONS-3E             
1 43633U 18074B   26138.50962435 -.00000028  00000+0  00000+0 0  9992
2 43633   0.0079  59.1367 0001043 226.4818 303.0322  1.00272018 28045
AT&T T-16               
1 44333U 19034A   26138.34975655 -.00000111  00000+0  00000+0 0  9990
2 44333   0.0175  41.6269 0000926 196.5448  22.9329  1.00267966 25331
INTELSAT 39 (IS-39)     
1 44476U 19049B   26138.48625934  .00000036  00000+0  00000+0 0  9996
2 44476   0.0157 304.5998 0000674 344.4340 184.1400  1.00270532 24832
GALAXY 30 (G-30)        
1 46114U 20056C   26138.50183507  .00000040  00000+0  00000+0 0  9990
2 46114   0.0146 332.9296 0002021  77.3455 241.5757  1.00271569 20991
GALAXY 33 (G-33)        
1 54026U 22128A   26138.52110264  .00000082  00000+0  00000+0 0  9991
2 54026   0.0169 328.6158 0001712  90.2321 231.9537  1.00271624 13441
GALAXY 34 (G-34)        
1 54027U 22128B   26138.49997166  .00000061  00000+0  00000+0 0  9999
2 54027   0.0149 311.5576 0001517 106.6699 228.9557  1.00272531 13613
GALAXY 31 (G-31)        
1 54243U 22153A   26138.46193897  .00000016  00000+0  00000+0 0  9993
2 54243   0.0094 321.6076 0001019  87.4514 232.3934  1.00271473  6836
GALAXY 32 (G-32)        
1 54244U 22153B   26138.47822654 -.00000171  00000+0  00000+0 0  9998
2 54244   0.0097 316.7197 0002401  64.3950 296.2176  1.00270330 12849
GALAXY 35 (G-35)        
1 54741U 22170A   26138.47822654  .00000000  00000+0  00000+0 0  9999
2 54741   0.0143 306.8137 0001876 113.1206 255.2844  1.00269386 12597
GALAXY 36 (G-36)        
1 54742U 22170B   26138.47822654 -.00000182  00000+0  00000+0 0  9992
2 54742   0.0184 243.9808 0002342 185.4162 249.9302  1.00270497 12472
GALAXY 37 (G-37)        
1 57493U 23112A   26138.50183507  .00000051  00000+0  00000+0 0  9990
2 57493   0.0350  76.8388 0001812 334.0218 238.9894  1.00271443 10243
